{
  "type": "FeatureCollection",
  "features": [
    {
      "type": "Feature",
      "properties": {
        "norad_id": 35744,
        "name": "IRIDIUM 33 DEB",
        "group": "iridium-33-debris",
        "lat": -65.0837792054344,
        "lon": -45.727414183952106,
        "alt_km": 673.9484479079647,
        "timestamp": "2025-12-19T20:43:00.470879+00:00",
        "meta_object_name": "IRIDIUM 33 DEB",
        "meta_object_id": "1997-051RX",
        "meta_epoch": "2025-12-18T04:12:04.449600",
        "meta_mean_motion": 14.71066119,
        "meta_eccentricity": 0.00209704,
        "meta_inclination": 86.329,
        "meta_ra_of_asc_node": 322.9794,
        "meta_arg_of_pericenter": 172.7789,
        "meta_mean_anomaly": 187.3734,
        "meta_ephemeris_type": 0,
        "meta_classification_type": "U",
        "meta_norad_cat_id": 35744,
        "meta_element_set_no": 999,
        "meta_rev_at_epoch": 87411,
        "meta_bstar": 0.00085332597,
        "meta_mean_motion_dot": 5.283e-05,
        "meta_mean_motion_ddot": 0,
        "tle_line1": "1 35744U 97051RX  25352.17505150  .00005283  00000+0  85333-3 0  9998",
        "tle_line2": "2 35744  86.3290 322.9794 0020970 172.7789 187.3734 14.71066119874118"
      },
      "geometry": {
        "type": "Point",
        "coordinates": [
          -45.727414183952106,
          -65.0837792054344
        ]
      }
    },
    {
      "type": "Feature",
      "properties": {
        "norad_id": 35797,
        "name": "IRIDIUM 33 DEB",
        "group": "iridium-33-debris",
        "lat": -33.64606182138962,
        "lon": -35.743376418798015,
        "alt_km": 634.520035269732,
        "timestamp": "2025-12-19T20:43:00.470889+00:00",
        "meta_object_name": "IRIDIUM 33 DEB",
        "meta_object_id": "1997-051SF",
        "meta_epoch": "2025-12-12T05:51:50.415264",
        "meta_mean_motion": 14.82743783,
        "meta_eccentricity": 0.00133704,
        "meta_inclination": 86.3362,
        "meta_ra_of_asc_node": 330.2007,
        "meta_arg_of_pericenter": 149.5686,
        "meta_mean_anomaly": 210.6315,
        "meta_ephemeris_type": 0,
        "meta_classification_type": "U",
        "meta_norad_cat_id": 35797,
        "meta_element_set_no": 999,
        "meta_rev_at_epoch": 87333,
        "meta_bstar": 0.0026694194,
        "meta_mean_motion_dot": 0.00021655,
        "meta_mean_motion_ddot": 0,
        "tle_line1": "1 35797U 97051SF  25346.24433351  .00021655  00000+0  26694-2 0  9995",
        "tle_line2": "2 35797  86.3362 330.2007 0013370 149.5686 210.6315 14.82743783873338"
      },
      "geometry": {
        "type": "Point",
        "coordinates": [
          -35.743376418798015,
          -33.64606182138962
        ]
      }
    },
    {
      "type": "Feature",
      "properties": {
        "norad_id": 35806,
        "name": "IRIDIUM 33 DEB",
        "group": "iridium-33-debris",
        "lat": -21.83224411146599,
        "lon": 16.024869115541552,
        "alt_km": 703.9189339905652,
        "timestamp": "2025-12-19T20:43:00.470904+00:00",
        "meta_object_name": "IRIDIUM 33 DEB",
        "meta_object_id": "1997-051SQ",
        "meta_epoch": "2025-12-16T08:46:37.248096",
        "meta_mean_motion": 14.57379748,
        "meta_eccentricity": 0.00158634,
        "meta_inclination": 86.3444,
        "meta_ra_of_asc_node": 19.032,
        "meta_arg_of_pericenter": 64.1996,
        "meta_mean_anomaly": 296.0847,
        "meta_ephemeris_type": 0,
        "meta_classification_type": "U",
        "meta_norad_cat_id": 35806,
        "meta_element_set_no": 999,
        "meta_rev_at_epoch": 86377,
        "meta_bstar": 0.00073764812,
        "meta_mean_motion_dot": 3.369e-05,
        "meta_mean_motion_ddot": 0,
        "tle_line1": "1 35806U 97051SQ  25350.36570889  .00003369  00000+0  73765-3 0  9996",
        "tle_line2": "2 35806  86.3444  19.0320 0015863  64.1996 296.0847 14.57379748863778"
      },
      "geometry": {
        "type": "Point",
        "coordinates": [
          16.024869115541552,
          -21.83224411146599
        ]
      }
    },
    {
      "type": "Feature",
      "properties": {
        "norad_id": 35809,
        "name": "IRIDIUM 33 DEB",
        "group": "iridium-33-debris",
        "lat": 83.56729922072064,
        "lon": 117.39584298108323,
        "alt_km": 638.4906017213716,
        "timestamp": "2025-12-19T20:43:00.470915+00:00",
        "meta_object_name": "IRIDIUM 33 DEB",
        "meta_object_id": "1997-051ST",
        "meta_epoch": "2025-12-10T16:35:56.421600",
        "meta_mean_motion": 14.75629145,
        "meta_eccentricity": 0.00097103,
        "meta_inclination": 86.329,
        "meta_ra_of_asc_node": 336.2813,
        "meta_arg_of_pericenter": 251.0565,
        "meta_mean_anomaly": 108.9602,
        "meta_ephemeris_type": 0,
        "meta_classification_type": "U",
        "meta_norad_cat_id": 35809,
        "meta_element_set_no": 999,
        "meta_rev_at_epoch": 86777,
        "meta_bstar": 0.0026432017,
        "meta_mean_motion_dot": 0.00018102,
        "meta_mean_motion_ddot": 0,
        "tle_line1": "1 35809U 97051ST  25344.69162525  .00018102  00000+0  26432-2 0  9991",
        "tle_line2": "2 35809  86.3290 336.2813 0009710 251.0565 108.9602 14.75629145867777"
      },
      "geometry": {
        "type": "Point",
        "coordinates": [
          117.39584298108323,
          83.56729922072064
        ]
      }
    },
    {
      "type": "Feature",
      "properties": {
        "norad_id": 35846,
        "name": "IRIDIUM 33 DEB",
        "group": "iridium-33-debris",
        "lat": 59.4883047851665,
        "lon": -130.3763158033064,
        "alt_km": 729.9655548741885,
        "timestamp": "2025-12-19T20:43:00.470925+00:00",
        "meta_object_name": "IRIDIUM 33 DEB",
        "meta_object_id": "1997-051SW",
        "meta_epoch": "2025-12-19T03:31:15.584160",
        "meta_mean_motion": 14.43181206,
        "meta_eccentricity": 0.00194875,
        "meta_inclination": 86.374,
        "meta_ra_of_asc_node": 56.1065,
        "meta_arg_of_pericenter": 149.7947,
        "meta_mean_anomaly": 210.4382,
        "meta_ephemeris_type": 0,
        "meta_classification_type": "U",
        "meta_norad_cat_id": 35846,
        "meta_element_set_no": 999,
        "meta_rev_at_epoch": 71421,
        "meta_bstar": 0.00040510341,
        "meta_mean_motion_dot": 1.384e-05,
        "meta_mean_motion_ddot": 0,
        "tle_line1": "1 35846U 97051SW  25353.14670815  .00001384  00000+0  40510-3 0  9996",
        "tle_line2": "2 35846  86.3740  56.1065 0019487 149.7947 210.4382 14.43181206714214"
      },
      "geometry": {
        "type": "Point",
        "coordinates": [
          -130.3763158033064,
          59.4883047851665
        ]
      }
    },
    {
      "type": "Feature",
      "properties": {
        "norad_id": 35848,
        "name": "IRIDIUM 33 DEB",
        "group": "iridium-33-debris",
        "lat": 58.11477194656378,
        "lon": -172.90417122233123,
        "alt_km": 623.3644836088342,
        "timestamp": "2025-12-19T20:43:00.470937+00:00",
        "meta_object_name": "IRIDIUM 33 DEB",
        "meta_object_id": "1997-051SY",
        "meta_epoch": "2025-12-16T19:05:07.807200",
        "meta_mean_motion": 14.78723023,
        "meta_eccentricity": 0.00083075,
        "meta_inclination": 86.3897,
        "meta_ra_of_asc_node": 14.3007,
        "meta_arg_of_pericenter": 174.3439,
        "meta_mean_anomaly": 185.7876,
        "meta_ephemeris_type": 0,
        "meta_classification_type": "U",
        "meta_norad_cat_id": 35848,
        "meta_element_set_no": 999,
        "meta_rev_at_epoch": 66750,
        "meta_bstar": 0.0011327955,
        "meta_mean_motion_dot": 8.343e-05,
        "meta_mean_motion_ddot": 0,
        "tle_line1": "1 35848U 97051SY  25350.79522925  .00008343  00000+0  11328-2 0  9990",
        "tle_line2": "2 35848  86.3897  14.3007 0008307 174.3439 185.7876 14.78723023667508"
      },
      "geometry": {
        "type": "Point",
        "coordinates": [
          -172.90417122233123,
          58.11477194656378
        ]
      }
    },
    {
      "type": "Feature",
      "properties": {
        "norad_id": 35850,
        "name": "IRIDIUM 33 DEB",
        "group": "iridium-33-debris",
        "lat": 85.9825941974688,
        "lon": 95.62495159395044,
        "alt_km": 622.4929416308514,
        "timestamp": "2025-12-19T20:43:00.470948+00:00",
        "meta_object_name": "IRIDIUM 33 DEB",
        "meta_object_id": "1997-051TA",
        "meta_epoch": "2025-12-17T06:35:50.424288",
        "meta_mean_motion": 14.78922738,
        "meta_eccentricity": 0.00098245,
        "meta_inclination": 86.3492,
        "meta_ra_of_asc_node": 342.1832,
        "meta_arg_of_pericenter": 168.4252,
        "meta_mean_anomaly": 191.7196,
        "meta_ephemeris_type": 0,
        "meta_classification_type": "U",
        "meta_norad_cat_id": 35850,
        "meta_element_set_no": 999,
        "meta_rev_at_epoch": 71424,
        "meta_bstar": 0.0012101447,
        "meta_mean_motion_dot": 8.956e-05,
        "meta_mean_motion_ddot": 0,
        "tle_line1": "1 35850U 97051TA  25351.27488917  .00008956  00000+0  12101-2 0  9999",
        "tle_line2": "2 35850  86.3492 342.1832 0009824 168.4252 191.7196 14.78922738714242"
      },
      "geometry": {
        "type": "Point",
        "coordinates": [
          95.62495159395044,
          85.9825941974688
        ]
      }
    }
  ]
}